NESS                    
1 58020U 23155E   26068.76452457  .00019469  00000+0  74047-3 0  9996
2 58020  97.5941 152.6141 0006891 179.8776 180.2465 15.26794015133307
STARLINK-33791          
1 63594U 25076AB  26068.39903251  .00036701  00000+0  13369-2 0  9991
2 63594  42.9965 323.5303 0000535  14.5372 345.5495 15.27573239 51788
